{"fetched_at":"2026-03-29T16:36:15Z","count":15609,"tles":[{"name":"STARLINK-30847","line1":"1 58239U 23171K   26087.71940757  .00007903  00000+0  30394-3 0  9994","line2":"2 58239  43.0014 177.8648 0002017 262.1387  97.9235 15.26744219132643","category":"Starlink"}]}